COSMOS 2361 [-]         
1 25590U 98076A   20026.92316677  .00000031  00000-0  16754-4 0  9993
2 25590  82.9358 131.0947 0032878 113.1896  24.1197 13.72974531 56805
COSMOS 2378 [-]         
1 26818U 01023A   20026.60755881  .00000000  00000-0 -16165-4 0  9995
2 26818  82.9295 150.9594 0034290  65.9941 294.4787 13.73939633934450
COSMOS 2389 [-]         
1 27436U 02026A   20026.78446942  .00000047  00000-0  33780-4 0  9992
2 27436  82.9504  95.6785 0044996 290.9725 213.1713 13.74941766886501
COSMOS 2398 [-]         
1 27818U 03023A   20026.52304138  .00000041  00000-0  28633-4 0  9991
2 27818  82.9469  54.6394 0030248 318.0030  41.8809 13.72174655833677
COSMOS 2407 [+]         
1 28380U 04028A   20027.19724111  .00000026  00000-0  11135-4 0  9995
2 28380  82.9605   2.1276 0038080 297.6213  62.1076 13.76073319779207
COSMOS 2414 [+]         
1 28521U 05002A   20027.19587617 -.00000001  00000-0 -14052-4 0  9999
2 28521  82.9492   7.6356 0041005 138.2789 222.1509 13.87617469760588
COSMOS 2429 [-]         
1 32052U 07038A   20026.40581521  .00000038  00000-0  23737-4 0  9993
2 32052  82.9819 125.5370 0037058 271.3485  88.3426 13.74922675620934
COSMOS 2454 [-]         
1 35635U 09039A   20027.00497492  .00000029  00000-0  10510-4 0  9991
2 35635  82.9565 355.7543 0020743  92.4701 267.8830 13.89647842533524
COSMOS 2463 [+]         
1 36519U 10017A   20027.23011428  .00000082  00000-0  73619-4 0  9995
2 36519  82.9617 163.4500 0037556 121.5318 238.9512 13.71440842488234